[{"OBJECT_NAME":"ONEWEB-0383","OBJECT_ID":"2021-090AG","EPOCH":"2026-03-14T15:29:27.343968","MEAN_MOTION":13.14502432,"ECCENTRICITY":0.00014542,"INCLINATION":87.898,"RA_OF_ASC_NODE":308.56,"ARG_OF_PERICENTER":84.9737,"MEAN_ANOMALY":275.1558,"EPHEMERIS_TYPE":0,"CLASSIFICATION_TYPE":"U","NORAD_CAT_ID":49309,"ELEMENT_SET_NO":999,"REV_AT_EPOCH":21517,"BSTAR":0.00055854125,"MEAN_MOTION_DOT":2.2e-6,"MEAN_MOTION_DDOT":0},{"OBJECT_NAME":"ONEWEB-0384","OBJECT_ID":"2021-090AH","EPOCH":"2026-03-14T14:13:04.700928","MEAN_MOTION":13.20807682,"ECCENTRICITY":0.0001146,"INCLINATION":87.9168,"RA_OF_ASC_NODE":293.3666,"ARG_OF_PERICENTER":92.0347,"MEAN_ANOMALY":268.0918,"EPHEMERIS_TYPE":0,"CLASSIFICATION_TYPE":"U","NORAD_CAT_ID":49310,"ELEMENT_SET_NO":999,"REV_AT_EPOCH":21734,"BSTAR":2.3447268e-5,"MEAN_MOTION_DOT":2.3e-7,"MEAN_MOTION_DDOT":0},{"OBJECT_NAME":"ONEWEB-0385","OBJECT_ID":"2021-090AJ","EPOCH":"2026-03-14T14:14:23.953920","MEAN_MOTION":13.20771367,"ECCENTRICITY":0.00014668,"INCLINATION":87.9163,"RA_OF_ASC_NODE":293.3284,"ARG_OF_PERICENTER":88.4535,"MEAN_ANOMALY":271.6767,"EPHEMERIS_TYPE":0,"CLASSIFICATION_TYPE":"U","NORAD_CAT_ID":49311,"ELEMENT_SET_NO":999,"REV_AT_EPOCH":21731,"BSTAR":-3.1123279e-5,"MEAN_MOTION_DOT":0,"MEAN_MOTION_DDOT":0},{"OBJECT_NAME":"ONEWEB-0386","OBJECT_ID":"2021-090AK","EPOCH":"2026-03-14T14:39:23.361984","MEAN_MOTION":13.20770898,"ECCENTRICITY":0.00013867,"INCLINATION":87.9167,"RA_OF_ASC_NODE":293.3095,"ARG_OF_PERICENTER":88.4966,"MEAN_ANOMALY":271.6326,"EPHEMERIS_TYPE":0,"CLASSIFICATION_TYPE":"U","NORAD_CAT_ID":49312,"ELEMENT_SET_NO":999,"REV_AT_EPOCH":21733,"BSTAR":6.0675794e-5,"MEAN_MOTION_DOT":3.8e-7,"MEAN_MOTION_DDOT":0},{"OBJECT_NAME":"ONEWEB-0387","OBJECT_ID":"2021-090AL","EPOCH":"2026-03-14T14:16:39.082656","MEAN_MOTION":13.20770272,"ECCENTRICITY":0.00015685,"INCLINATION":87.9154,"RA_OF_ASC_NODE":293.3495,"ARG_OF_PERICENTER":75.0033,"MEAN_ANOMALY":285.1274,"EPHEMERIS_TYPE":0,"CLASSIFICATION_TYPE":"U","NORAD_CAT_ID":49313,"ELEMENT_SET_NO":999,"REV_AT_EPOCH":21733,"BSTAR":3.9097969e-5,"MEAN_MOTION_DOT":2.9e-7,"MEAN_MOTION_DDOT":0},{"OBJECT_NAME":"ONEWEB-0388","OBJECT_ID":"2021-090AM","EPOCH":"2026-03-14T15:17:02.936256","MEAN_MOTION":13.19724079,"ECCENTRICITY":0.00015567,"INCLINATION":87.9223,"RA_OF_ASC_NODE":323.8126,"ARG_OF_PERICENTER":80.0284,"MEAN_ANOMALY":280.1025,"EPHEMERIS_TYPE":0,"CLASSIFICATION_TYPE":"U","NORAD_CAT_ID":49314,"ELEMENT_SET_NO":999,"REV_AT_EPOCH":21394,"BSTAR":0.00011851296,"MEAN_MOTION_DOT":6.0e-7,"MEAN_MOTION_DDOT":0},{"OBJECT_NAME":"ONEWEB-0389","OBJECT_ID":"2021-132A","EPOCH":"2026-03-14T13:58:27.162048","MEAN_MOTION":13.17649837,"ECCENTRICITY":0.00016253,"INCLINATION":87.9155,"RA_OF_ASC_NODE":24.6546,"ARG_OF_PERICENTER":69.7808,"MEAN_ANOMALY":290.3498,"EPHEMERIS_TYPE":0,"CLASSIFICATION_TYPE":"U","NORAD_CAT_ID":50469,"ELEMENT_SET_NO":999,"REV_AT_EPOCH":20562,"BSTAR":4.979019e-5,"MEAN_MOTION_DOT":3.2e-7,"MEAN_MOTION_DDOT":0},{"OBJECT_NAME":"ONEWEB-0390","OBJECT_ID":"2021-132B","EPOCH":"2026-03-14T14:00:51.977088","MEAN_MOTION":13.17648347,"ECCENTRICITY":0.00020922,"INCLINATION":87.9158,"RA_OF_ASC_NODE":24.6541,"ARG_OF_PERICENTER":75.99,"MEAN_ANOMALY":284.1464,"EPHEMERIS_TYPE":0,"CLASSIFICATION_TYPE":"U","NORAD_CAT_ID":50470,"ELEMENT_SET_NO":999,"REV_AT_EPOCH":20562,"BSTAR":0.00022518431,"MEAN_MOTION_DOT":1.0e-6,"MEAN_MOTION_DDOT":0},{"OBJECT_NAME":"ONEWEB-0391","OBJECT_ID":"2021-132C","EPOCH":"2026-03-14T08:35:16.121472","MEAN_MOTION":13.17650379,"ECCENTRICITY":0.00018452,"INCLINATION":87.9155,"RA_OF_ASC_NODE":24.7084,"ARG_OF_PERICENTER":53.6732,"MEAN_ANOMALY":306.457,"EPHEMERIS_TYPE":0,"CLASSIFICATION_TYPE":"U","NORAD_CAT_ID":50471,"ELEMENT_SET_NO":999,"REV_AT_EPOCH":20559,"BSTAR":0.00036330565,"MEAN_MOTION_DOT":1.54e-6,"MEAN_MOTION_DDOT":0},{"OBJECT_NAME":"ONEWEB-0392","OBJECT_ID":"2021-132D","EPOCH":"2026-03-14T14:47:03.205248","MEAN_MOTION":13.1764952,"ECCENTRICITY":0.00016942,"INCLINATION":87.9169,"RA_OF_ASC_NODE":24.6184,"ARG_OF_PERICENTER":68.1004,"MEAN_ANOMALY":292.0307,"EPHEMERIS_TYPE":0,"CLASSIFICATION_TYPE":"U","NORAD_CAT_ID":50472,"ELEMENT_SET_NO":999,"REV_AT_EPOCH":20566,"BSTAR":7.2825806e-5,"MEAN_MOTION_DOT":4.1e-7,"MEAN_MOTION_DDOT":0},{"OBJECT_NAME":"ONEWEB-0393","OBJECT_ID":"2021-132E","EPOCH":"2026-03-14T08:40:18.934464","MEAN_MOTION":13.17648577,"ECCENTRICITY":0.00017644,"INCLINATION":87.9165,"RA_OF_ASC_NODE":24.6919,"ARG_OF_PERICENTER":74.4466,"MEAN_ANOMALY":285.686,"EPHEMERIS_TYPE":0,"CLASSIFICATION_TYPE":"U","NORAD_CAT_ID":50473,"ELEMENT_SET_NO":999,"REV_AT_EPOCH":20562,"BSTAR":0.00019498946,"MEAN_MOTION_DOT":8.9e-7,"MEAN_MOTION_DDOT":0},{"OBJECT_NAME":"ONEWEB-0394","OBJECT_ID":"2021-132F","EPOCH":"2026-03-14T11:30:59.980032","MEAN_MOTION":13.1868664,"ECCENTRICITY":0.00016822,"INCLINATION":87.9247,"RA_OF_ASC_NODE":354.2527,"ARG_OF_PERICENTER":75.5931,"MEAN_ANOMALY":284.5388,"EPHEMERIS_TYPE":0,"CLASSIFICATION_TYPE":"U","NORAD_CAT_ID":50474,"ELEMENT_SET_NO":999,"REV_AT_EPOCH":20911,"BSTAR":0.00023853111,"MEAN_MOTION_DOT":1.07e-6,"MEAN_MOTION_DDOT":0},{"OBJECT_NAME":"ONEWEB-0395","OBJECT_ID":"2021-132G","EPOCH":"2026-03-14T09:45:18.453312","MEAN_MOTION":13.11418076,"ECCENTRICITY":0.00019115,"INCLINATION":87.8869,"RA_OF_ASC_NODE":39.9146,"ARG_OF_PERICENTER":74.2584,"MEAN_ANOMALY":285.8755,"EPHEMERIS_TYPE":0,"CLASSIFICATION_TYPE":"U","NORAD_CAT_ID":50475,"ELEMENT_SET_NO":999,"REV_AT_EPOCH":20329,"BSTAR":-0.00051394956,"MEAN_MOTION_DOT":-1.69e-6,"MEAN_MOTION_DDOT":0},{"OBJECT_NAME":"ONEWEB-0396","OBJECT_ID":"2021-132H","EPOCH":"2026-03-14T07:42:58.454496","MEAN_MOTION":13.18687237,"ECCENTRICITY":0.00017134,"INCLINATION":87.9252,"RA_OF_ASC_NODE":354.2958,"ARG_OF_PERICENTER":76.0068,"MEAN_ANOMALY":284.1254,"EPHEMERIS_TYPE":0,"CLASSIFICATION_TYPE":"U","NORAD_CAT_ID":50476,"ELEMENT_SET_NO":999,"REV_AT_EPOCH":20913,"BSTAR":0.00019723743,"MEAN_MOTION_DOT":9.1e-7,"MEAN_MOTION_DDOT":0},{"OBJECT_NAME":"ONEWEB-0397","OBJECT_ID":"2021-132J","EPOCH":"2026-03-14T11:42:52.635744","MEAN_MOTION":13.18686855,"ECCENTRICITY":0.0001576,"INCLINATION":87.9251,"RA_OF_ASC_NODE":354.2629,"ARG_OF_PERICENTER":78.4209,"MEAN_ANOMALY":281.71,"EPHEMERIS_TYPE":0,"CLASSIFICATION_TYPE":"U","NORAD_CAT_ID":50477,"ELEMENT_SET_NO":999,"REV_AT_EPOCH":20913,"BSTAR":0.00029748863,"MEAN_MOTION_DOT":1.3e-6,"MEAN_MOTION_DDOT":0},{"OBJECT_NAME":"ONEWEB-0398","OBJECT_ID":"2021-132K","EPOCH":"2026-03-14T10:48:46.959264","MEAN_MOTION":13.11414703,"ECCENTRICITY":0.00022095,"INCLINATION":87.8873,"RA_OF_ASC_NODE":39.8871,"ARG_OF_PERICENTER":76.9548,"MEAN_ANOMALY":283.1826,"EPHEMERIS_TYPE":0,"CLASSIFICATION_TYPE":"U","NORAD_CAT_ID":50478,"ELEMENT_SET_NO":999,"REV_AT_EPOCH":20319,"BSTAR":-6.440031e-6,"MEAN_MOTION_DOT":1.0e-7,"MEAN_MOTION_DDOT":0},{"OBJECT_NAME":"ONEWEB-0399","OBJECT_ID":"2021-132L","EPOCH":"2026-03-14T10:29:15.415008","MEAN_MOTION":13.11415933,"ECCENTRICITY":0.00013922,"INCLINATION":87.8878,"RA_OF_ASC_NODE":39.8991,"ARG_OF_PERICENTER":74.8815,"MEAN_ANOMALY":285.2467,"EPHEMERIS_TYPE":0,"CLASSIFICATION_TYPE":"U","NORAD_CAT_ID":50479,"ELEMENT_SET_NO":999,"REV_AT_EPOCH":20318,"BSTAR":0.0015003397,"MEAN_MOTION_DOT":5.44e-6,"MEAN_MOTION_DDOT":0}]
