ONEWEB-0383             
1 49309U 21090AG  26073.64545537  .00000220  00000+0  55854-3 0  9997
2 49309  87.8980 308.5600 0001454  84.9737 275.1558 13.14502432215175
ONEWEB-0384             
1 49310U 21090AH  26073.59241552  .00000023  00000+0  23447-4 0  9998
2 49310  87.9168 293.3666 0001146  92.0347 268.0918 13.20807682217348
ONEWEB-0385             
1 49311U 21090AJ  26073.59333280  .00000000  00000+0 -31123-4 0  9995
2 49311  87.9163 293.3284 0001466  88.4535 271.6767 13.20771367217312
ONEWEB-0386             
1 49312U 21090AK  26073.61068706  .00000038  00000+0  60676-4 0  9992
2 49312  87.9167 293.3095 0001386  88.4966 271.6326 13.20770898217337
ONEWEB-0387             
1 49313U 21090AL  26073.59489679  .00000029  00000+0  39098-4 0  9990
2 49313  87.9154 293.3495 0001568  75.0033 285.1274 13.20770272217335
ONEWEB-0388             
1 49314U 21090AM  26073.63683954  .00000060  00000+0  11851-3 0  9999
2 49314  87.9223 323.8126 0001556  80.0284 280.1025 13.19724079213948
ONEWEB-0389             
1 50469U 21132A   26073.58225882  .00000032  00000+0  49790-4 0  9998
2 50469  87.9155  24.6546 0001625  69.7808 290.3498 13.17649837205629
ONEWEB-0390             
1 50470U 21132B   26073.58393492  .00000100  00000+0  22518-3 0  9997
2 50470  87.9158  24.6541 0002092  75.9900 284.1464 13.17648347205629
ONEWEB-0391             
1 50471U 21132C   26073.35782548  .00000154  00000+0  36331-3 0  9994
2 50471  87.9155  24.7084 0001845  53.6732 306.4570 13.17650379205591
ONEWEB-0392             
1 50472U 21132D   26073.61600932  .00000041  00000+0  72826-4 0  9995
2 50472  87.9169  24.6184 0001694  68.1004 292.0307 13.17649520205664
ONEWEB-0393             
1 50473U 21132E   26073.36133026  .00000089  00000+0  19499-3 0  9991
2 50473  87.9165  24.6919 0001764  74.4466 285.6860 13.17648577205626
ONEWEB-0394             
1 50474U 21132F   26073.47986088  .00000107  00000+0  23853-3 0  9998
2 50474  87.9247 354.2527 0001682  75.5931 284.5388 13.18686640209118
ONEWEB-0395             
1 50475U 21132G   26073.40646358 -.00000169  00000+0 -51395-3 0  9997
2 50475  87.8869  39.9146 0001911  74.2584 285.8755 13.11418076203291
ONEWEB-0396             
1 50476U 21132H   26073.32150989  .00000091  00000+0  19724-3 0  9991
2 50476  87.9252 354.2958 0001713  76.0068 284.1254 13.18687237209139
ONEWEB-0397             
1 50477U 21132J   26073.48810921  .00000130  00000+0  29749-3 0  9990
2 50477  87.9251 354.2629 0001576  78.4209 281.7100 13.18686855209132
ONEWEB-0398             
1 50478U 21132K   26073.45054351  .00000010  00000+0 -64400-5 0  9998
2 50478  87.8873  39.8871 0002209  76.9548 283.1826 13.11414703203195
ONEWEB-0399             
1 50479U 21132L   26073.43698397  .00000544  00000+0  15003-2 0  9994
2 50479  87.8878  39.8991 0001392  74.8815 285.2467 13.11415933203189
